QIANFAN-25              
1 61558U 24185G   25338.60901272  .00000845  00000+0  50811-3 0  9997
2 61558  88.9811  79.1080 0008912 349.3536  10.7456 14.05898190 68361
QIANFAN-26              
1 61559U 24185H   25338.61478511  .00000500  00000+0  48746-3 0  9996
2 61559  88.9813  80.6257 0006596  51.6003 308.5755 13.77804809 67557
QIANFAN-27              
1 61560U 24185J   25338.61625646  .00001173  00000+0  47374-3 0  9994
2 61560  88.9807  77.8942 0006282 328.6332  31.4487 14.27318115 69007
QIANFAN-28              
1 61561U 24185K   25338.60240308  .00001850  00000+0  74034-3 0  9997
2 61561  88.9825  77.8984 0005578 328.7022  31.3840 14.28009472 69015
QIANFAN-29              
1 61562U 24185L   25338.66621183  .00000282  00000+0  41846-3 0  9991
2 61562  88.9789  82.1429 0011612  79.4307 280.8152 13.51006644 66703
QIANFAN-30              
1 61563U 24185M   25338.56082147  .00000247  00000+0  36892-3 0  9998
2 61563  88.9810  81.6761 0008964  68.7871 291.4236 13.49985710 66961
QIANFAN-31              
1 61564U 24185N   25338.65094079  .00000300  00000+0  39880-3 0  9996
2 61564  88.9794  81.4817 0008236  64.6113 295.5894 13.57960707 67064
QIANFAN-32              
1 61565U 24185P   25338.60787060  .00000286  00000+0  42550-3 0  9992
2 61565  88.9853  81.8029 0011200  89.9364 270.3070 13.50731363 66943
